{"type": "FeatureCollection", "features": [ {"type": "Feature", "properties": {"norad_id": 66573, "name": "STARLINK-35650", "group": "last-30-days", "lat": 41.53994153734049, "lon": -118.02404160949223, "alt_km": 350.52130517580827, "timestamp": "2025-12-04T10:51:48.876902+00:00", "meta": {"OBJECT_NAME": "STARLINK-35650", "OBJECT_ID": "2025-268S", "EPOCH": "2025-12-04T04:00:03.000096", "MEAN_MOTION": 15.72319711, "ECCENTRICITY": 0.0001857, "INCLINATION": 42.9989, "RA_OF_ASC_NODE": 171.7476, "ARG_OF_PERICENTER": 265.5273, "MEAN_ANOMALY": 351.1682, "EPHEMERIS_TYPE": 0, "CLASSIFICATION_TYPE": "U", "NORAD_CAT_ID": 66573, "ELEMENT_SET_NO": 999, "REV_AT_EPOCH": 329, "BSTAR": -0.015967, "MEAN_MOTION_DOT": -0.01933977, "MEAN_MOTION_DDOT": 0}, "tle": {"line1": "1 66573U 25268S   25338.16670139 -.01933977  00000+0 -15967-1 0  9993", "line2": "2 66573  42.9989 171.7476 0001857 265.5273 351.1682 15.72319711  3291"}}, "geometry": {"type": "Point", "coordinates": [-118.02404160949223, 41.53994153734049]}}, {"type": "Feature", "properties": {"norad_id": 66574, "name": "STARLINK-35812", "group": "last-30-days", "lat": 41.91827176619969, "lon": -115.5046567674495, "alt_km": 350.2560141073873, "timestamp": "2025-12-04T10:51:48.876912+00:00", "meta": {"OBJECT_NAME": "STARLINK-35812", "OBJECT_ID": "2025-268T", "EPOCH": "2025-12-04T04:00:03.000096", "MEAN_MOTION": 15.72310269, "ECCENTRICITY": 0.0001541, "INCLINATION": 42.9989, "RA_OF_ASC_NODE": 171.742, "ARG_OF_PERICENTER": 266.6659, "MEAN_ANOMALY": 351.956, "EPHEMERIS_TYPE": 0, "CLASSIFICATION_TYPE": "U", "NORAD_CAT_ID": 66574, "ELEMENT_SET_NO": 999, "REV_AT_EPOCH": 329, "BSTAR": -0.015885, "MEAN_MOTION_DOT": -0.01885863, "MEAN_MOTION_DDOT": 0}, "tle": {"line1": "1 66574U 25268T   25338.16670139 -.01885863  00000+0 -15885-1 0  9993", "line2": "2 66574  42.9989 171.7420 0001541 266.6659 351.9560 15.72310269  3293"}}, "geometry": {"type": "Point", "coordinates": [-115.5046567674495, 41.91827176619969]}}, {"type": "Feature", "properties": {"norad_id": 66575, "name": "STARLINK-35810", "group": "last-30-days", "lat": 42.24016441021093, "lon": -112.96094901873879, "alt_km": 350.2569803607894, "timestamp": "2025-12-04T10:51:48.876924+00:00", "meta": {"OBJECT_NAME": "STARLINK-35810", "OBJECT_ID": "2025-268U", "EPOCH": "2025-12-04T04:00:03.000096", "MEAN_MOTION": 15.72307773, "ECCENTRICITY": 0.0001593, "INCLINATION": 42.9989, "RA_OF_ASC_NODE": 171.7372, "ARG_OF_PERICENTER": 265.0969, "MEAN_ANOMALY": 355.4437, "EPHEMERIS_TYPE": 0, "CLASSIFICATION_TYPE": "U", "NORAD_CAT_ID": 66575, "ELEMENT_SET_NO": 999, "REV_AT_EPOCH": 329, "BSTAR": -0.015856, "MEAN_MOTION_DOT": -0.0188285, "MEAN_MOTION_DDOT": 0}, "tle": {"line1": "1 66575U 25268U   25338.16670139 -.01882850  00000+0 -15856-1 0  9995", "line2": "2 66575  42.9989 171.7372 0001593 265.0969 355.4437 15.72307773  3292"}}, "geometry": {"type": "Point", "coordinates": [-112.96094901873879, 42.24016441021093]}}, {"type": "Feature", "properties": {"norad_id": 66576, "name": "STARLINK-35814", "group": "last-30-days", "lat": 42.50519551316203, "lon": -110.3924814197896, "alt_km": 350.0988142062906, "timestamp": "2025-12-04T10:51:48.876934+00:00", "meta": {"OBJECT_NAME": "STARLINK-35814", "OBJECT_ID": "2025-268V", "EPOCH": "2025-12-04T04:00:03.000096", "MEAN_MOTION": 15.72311446, "ECCENTRICITY": 0.0001429, "INCLINATION": 42.9989, "RA_OF_ASC_NODE": 171.7323, "ARG_OF_PERICENTER": 267.2114, "MEAN_ANOMALY": 355.2437, "EPHEMERIS_TYPE": 0, "CLASSIFICATION_TYPE": "U", "NORAD_CAT_ID": 66576, "ELEMENT_SET_NO": 999, "REV_AT_EPOCH": 329, "BSTAR": -0.015893, "MEAN_MOTION_DOT": -0.01925062, "MEAN_MOTION_DDOT": 0}, "tle": {"line1": "1 66576U 25268V   25338.16670139 -.01925062  00000+0 -15893-1 0  9990", "line2": "2 66576  42.9989 171.7323 0001429 267.2114 355.2437 15.72311446  3293"}}, "geometry": {"type": "Point", "coordinates": [-110.3924814197896, 42.50519551316203]}}, {"type": "Feature", "properties": {"norad_id": 66577, "name": "STARLINK-35815", "group": "last-30-days", "lat": 42.71195441660267, "lon": -107.80628369194432, "alt_km": 350.0395733237856, "timestamp": "2025-12-04T10:51:48.876944+00:00", "meta": {"OBJECT_NAME": "STARLINK-35815", "OBJECT_ID": "2025-268W", "EPOCH": "2025-12-04T04:00:03.000096", "MEAN_MOTION": 15.72314345, "ECCENTRICITY": 0.0001377, "INCLINATION": 42.9988, "RA_OF_ASC_NODE": 171.7278, "ARG_OF_PERICENTER": 264.6522, "MEAN_ANOMALY": 359.7177, "EPHEMERIS_TYPE": 0, "CLASSIFICATION_TYPE": "U", "NORAD_CAT_ID": 66577, "ELEMENT_SET_NO": 999, "REV_AT_EPOCH": 329, "BSTAR": -0.015916, "MEAN_MOTION_DOT": -0.01927704, "MEAN_MOTION_DDOT": 0}, "tle": {"line1": "1 66577U 25268W   25338.16670139 -.01927704  00000+0 -15916-1 0  9992", "line2": "2 66577  42.9988 171.7278 0001377 264.6522 359.7177 15.72314345  3299"}}, "geometry": {"type": "Point", "coordinates": [-107.80628369194432, 42.71195441660267]}}, {"type": "Feature", "properties": {"norad_id": 66578, "name": "STARLINK-35743", "group": "last-30-days", "lat": 42.86027568511777, "lon": -105.20362706794494, "alt_km": 350.0637164410273, "timestamp": "2025-12-04T10:51:48.876956+00:00", "meta": {"OBJECT_NAME": "STARLINK-35743", "OBJECT_ID": "2025-268X", "EPOCH": "2025-12-04T04:00:03.000096", "MEAN_MOTION": 15.72312292, "ECCENTRICITY": 0.0001439, "INCLINATION": 42.9989, "RA_OF_ASC_NODE": 171.7227, "ARG_OF_PERICENTER": 264.541, "MEAN_ANOMALY": 1.7478, "EPHEMERIS_TYPE": 0, "CLASSIFICATION_TYPE": "U", "NORAD_CAT_ID": 66578, "ELEMENT_SET_NO": 999, "REV_AT_EPOCH": 329, "BSTAR": -0.015898, "MEAN_MOTION_DOT": -0.0192565, "MEAN_MOTION_DDOT": 0}, "tle": {"line1": "1 66578U 25268X   25338.16670139 -.01925650  00000+0 -15898-1 0  9990", "line2": "2 66578  42.9989 171.7227 0001439 264.5410   1.7478 15.72312292  3296"}}, "geometry": {"type": "Point", "coordinates": [-105.20362706794494, 42.86027568511777]}}, {"type": "Feature", "properties": {"norad_id": 66579, "name": "STARLINK-35868", "group": "last-30-days", "lat": 42.94894694872017, "lon": -102.59167487568926, "alt_km": 350.22070138195613, "timestamp": "2025-12-04T10:51:48.876966+00:00", "meta": {"OBJECT_NAME": "STARLINK-35868", "OBJECT_ID": "2025-268Y", "EPOCH": "2025-12-04T04:00:03.000096", "MEAN_MOTION": 15.7230747, "ECCENTRICITY": 0.0001683, "INCLINATION": 42.9988, "RA_OF_ASC_NODE": 171.718, "ARG_OF_PERICENTER": 265.9172, "MEAN_ANOMALY": 2.2906, "EPHEMERIS_TYPE": 0, "CLASSIFICATION_TYPE": "U", "NORAD_CAT_ID": 66579, "ELEMENT_SET_NO": 999, "REV_AT_EPOCH": 329, "BSTAR": -0.015845, "MEAN_MOTION_DOT": -0.01881735, "MEAN_MOTION_DDOT": 0}, "tle": {"line1": "1 66579U 25268Y   25338.16670139 -.01881735  00000+0 -15845-1 0  9998", "line2": "2 66579  42.9988 171.7180 0001683 265.9172   2.2906 15.72307470  3299"}}, "geometry": {"type": "Point", "coordinates": [-102.59167487568926, 42.94894694872017]}}, {"type": "Feature", "properties": {"norad_id": 66580, "name": "STARLINK-35872", "group": "last-30-days", "lat": 42.97798537995028, "lon": -99.96583873340502, "alt_km": 350.1716227539646, "timestamp": "2025-12-04T10:51:48.876976+00:00", "meta": {"OBJECT_NAME": "STARLINK-35872", "OBJECT_ID": "2025-268Z", "EPOCH": "2025-12-04T04:00:03.000096", "MEAN_MOTION": 15.72316766, "ECCENTRICITY": 0.00016, "INCLINATION": 42.9988, "RA_OF_ASC_NODE": 171.7136, "ARG_OF_PERICENTER": 265.4959, "MEAN_ANOMALY": 4.6323, "EPHEMERIS_TYPE": 0, "CLASSIFICATION_TYPE": "U", "NORAD_CAT_ID": 66580, "ELEMENT_SET_NO": 999, "REV_AT_EPOCH": 329, "BSTAR": -0.016017, "MEAN_MOTION_DOT": -0.01938849, "MEAN_MOTION_DDOT": 0}, "tle": {"line1": "1 66580U 25268Z   25338.16670139 -.01938849  00000+0 -16017-1 0  9991", "line2": "2 66580  42.9988 171.7136 0001600 265.4959   4.6323 15.72316766  3296"}}, "geometry": {"type": "Point", "coordinates": [-99.96583873340502, 42.97798537995028]}}, {"type": "Feature", "properties": {"norad_id": 66581, "name": "STARLINK-35744", "group": "last-30-days", "lat": 42.947247545318305, "lon": -97.3567809788982, "alt_km": 350.2078099325381, "timestamp": "2025-12-04T10:51:48.876986+00:00", "meta": {"OBJECT_NAME": "STARLINK-35744", "OBJECT_ID": "2025-268AA", "EPOCH": "2025-12-04T04:00:03.000096", "MEAN_MOTION": 15.72306757, "ECCENTRICITY": 0.0001665, "INCLINATION": 42.9989, "RA_OF_ASC_NODE": 171.7081, "ARG_OF_PERICENTER": 266.3515, "MEAN_ANOMALY": 5.6912, "EPHEMERIS_TYPE": 0, "CLASSIFICATION_TYPE": "U", "NORAD_CAT_ID": 66581, "ELEMENT_SET_NO": 999, "REV_AT_EPOCH": 324, "BSTAR": -0.01584, "MEAN_MOTION_DOT": -0.01881146, "MEAN_MOTION_DDOT": 0}, "tle": {"line1": "1 66581U 25268AA  25338.16670139 -.01881146  00000+0 -15840-1 0  9992", "line2": "2 66581  42.9989 171.7081 0001665 266.3515   5.6912 15.72306757  3245"}}, "geometry": {"type": "Point", "coordinates": [-97.3567809788982, 42.947247545318305]}}, {"type": "Feature", "properties": {"norad_id": 66582, "name": "STARLINK-35746", "group": "last-30-days", "lat": 42.856478309221345, "lon": -94.74296201566145, "alt_km": 350.1558192919729, "timestamp": "2025-12-04T10:51:48.876996+00:00", "meta": {"OBJECT_NAME": "STARLINK-35746", "OBJECT_ID": "2025-268AB", "EPOCH": "2025-12-04T04:00:03.000096", "MEAN_MOTION": 15.7231152, "ECCENTRICITY": 0.0001572, "INCLINATION": 42.9988, "RA_OF_ASC_NODE": 171.7032, "ARG_OF_PERICENTER": 270.0671, "MEAN_ANOMALY": 3.8894, "EPHEMERIS_TYPE": 0, "CLASSIFICATION_TYPE": "U", "NORAD_CAT_ID": 66582, "ELEMENT_SET_NO": 999, "REV_AT_EPOCH": 329, "BSTAR": -0.015889, "MEAN_MOTION_DOT": -0.01886427, "MEAN_MOTION_DDOT": 0}, "tle": {"line1": "1 66582U 25268AB  25338.16670139 -.01886427  00000+0 -15889-1 0  9993", "line2": "2 66582  42.9988 171.7032 0001572 270.0671   3.8894 15.72311520  3291"}}, "geometry": {"type": "Point", "coordinates": [-94.74296201566145, 42.856478309221345]}}]}